[
    {
        "Altitude(m)": 607897.63500269,
        "Argument of Periapsis(deg)": 0.0,
        "Eccentricity": 0.0,
        "Inclination(deg)": 60.0,
        "Latitude(deg)": -14.293049356560571,
        "Longitude(deg)": -138.3812643113164,
        "Mean Anomaly(deg)": -16.363600000000037,
        "RAAN(deg)": 330.0,
        "Satellite Name": "Test1 1473",
        "Satellite Number": 1473,
        "Semi-Major Axis(m)": 6980739.136638005,
        "Time(s)": 0
    },
    {
        "Altitude(m)": 607750.8356536591,
        "Argument of Periapsis(deg)": 0.00010418945913296404,
        "Eccentricity": 0.0,
        "Inclination(deg)": 60.0,
        "Latitude(deg)": -13.758891147918003,
        "Longitude(deg)": -138.09419449004994,
        "Mean Anomaly(deg)": -15.743493854538185,
        "RAAN(deg)": 329.9995799508602,
        "Satellite Name": "Test1 1473",
        "Satellite Number": 1473,
        "Semi-Major Axis(m)": 6980739.136638005,
        "Time(s)": 10
    }
]